2025-08-06 19:37:23,404 - src.stk_interface.stk_manager - INFO - ğŸ”„ ä½¿ç”¨Kepleriané«˜åº¦æ–¹æ³•...
2025-08-06 19:37:23,648 - src.stk_interface.stk_manager - INFO - âœ… Kepleriané«˜åº¦æ–¹æ³•æˆåŠŸ
2025-08-06 19:37:23,745 - src.stk_interface.stk_manager - INFO - âœ… åœ°é¢è½¨è¿¹é…ç½®æˆåŠŸ
2025-08-06 19:37:23,749 - src.stk_interface.stk_manager - INFO - âœ… å«æ˜Ÿåˆ›å»ºæˆåŠŸ: Satellite05
2025-08-06 19:37:23,839 - src.stk_interface.stk_manager - INFO - ğŸ”­ åˆ›å»ºä¼ æ„Ÿå™¨: Satellite05_Payload
2025-08-06 19:37:24,851 - src.stk_interface.stk_manager - INFO - âœ“ ä¼ æ„Ÿå™¨æ¨¡å¼è®¾ç½®ä¸ºåœ†é”¥
2025-08-06 19:37:25,065 - src.stk_interface.stk_manager - INFO - âœ“ è·å–Patternå¯¹è±¡æˆåŠŸï¼Œç±»å‹: <class 'win32com.client.CDispatch'>
2025-08-06 19:37:25,076 - src.stk_interface.stk_manager - INFO - âœ“ è®¾ç½®å¤–é”¥è§’æˆåŠŸ: 90.0Â°
2025-08-06 19:37:25,095 - src.stk_interface.stk_manager - INFO - âœ“ è®¾ç½®å†…é”¥è§’æˆåŠŸ: 66.0Â°
2025-08-06 19:37:25,129 - src.stk_interface.stk_manager - WARNING - âš ï¸ è®¾ç½®åœ†é”¥å‚æ•°å¤±è´¥: (-2147352567, 'å‘ç”Ÿæ„å¤–ã€‚', (0, None, 'Value 1.04719755 rad is invalid. Value range is 5.23598776 rad to 6.28318531 rad', None, 0, -2147220989), None)
2025-08-06 19:37:25,137 - src.stk_interface.stk_manager - INFO - âœ“ å•ç‹¬è®¾ç½®å¤–é”¥è§’æˆåŠŸ: 90.0Â°
2025-08-06 19:37:25,161 - src.stk_interface.stk_manager - INFO - âœ… åœ†é”¥è§†åœºé…ç½®æˆåŠŸ
2025-08-06 19:37:25,232 - src.stk_interface.stk_manager - INFO - âœ… æŒ‡å‘å‚æ•°é…ç½®æˆåŠŸ
2025-08-06 19:37:25,828 - src.stk_interface.stk_manager - INFO - âœ“ è·ç¦»çº¦æŸè®¾ç½®æˆåŠŸ: 0-5000km
2025-08-06 19:37:25,833 - src.stk_interface.stk_manager - INFO - âœ… çº¦æŸå‚æ•°é…ç½®æˆåŠŸ
2025-08-06 19:37:25,833 - src.stk_interface.stk_manager - INFO - âœ… ä¼ æ„Ÿå™¨åˆ›å»ºæˆåŠŸ: Satellite05_Payload
2025-08-06 19:37:25,837 - src.constellation.constellation_manager - INFO - âœ… å«æ˜Ÿåˆ›å»ºæˆåŠŸ: Satellite05 (è½¨é“é¢1, ä½ç½®5)
2025-08-06 19:37:25,902 - src.stk_interface.stk_manager - INFO - ğŸ›°ï¸ åˆ›å»ºå«æ˜Ÿå¯¹è±¡: Satellite06
2025-08-06 19:37:28,392 - src.stk_interface.stk_manager - INFO - âœ… ä¼ æ’­å™¨ç±»å‹è®¾ç½®æˆåŠŸ
2025-08-06 19:37:28,392 - src.stk_interface.stk_manager - INFO - âœ… å‚æ•° semi_axis = 8171.0 éªŒè¯é€šè¿‡
2025-08-06 19:37:28,392 - src.stk_interface.stk_manager - INFO - âœ… å‚æ•° eccentricity = 0.0 éªŒè¯é€šè¿‡
2025-08-06 19:37:28,393 - src.stk_interface.stk_manager - INFO - âœ… å‚æ•° inclination = 51.856 éªŒè¯é€šè¿‡
2025-08-06 19:37:28,393 - src.stk_interface.stk_manager - INFO - âœ… å‚æ•° raan = 0.0 éªŒè¯é€šè¿‡
2025-08-06 19:37:28,393 - src.stk_interface.stk_manager - INFO - âœ… å‚æ•° arg_of_perigee = 0.0 éªŒè¯é€šè¿‡
2025-08-06 19:37:28,393 - src.stk_interface.stk_manager - INFO - âœ… å‚æ•° mean_anomaly = 225.0 éªŒè¯é€šè¿‡
2025-08-06 19:37:28,393 - src.stk_interface.stk_manager - INFO - ğŸ”„ ä½¿ç”¨Kepleriané«˜åº¦æ–¹æ³•...
2025-08-06 19:37:28,916 - src.stk_interface.stk_manager - INFO - âœ… Kepleriané«˜åº¦æ–¹æ³•æˆåŠŸ
2025-08-06 19:37:29,032 - src.stk_interface.stk_manager - INFO - âœ… åœ°é¢è½¨è¿¹é…ç½®æˆåŠŸ
2025-08-06 19:37:29,074 - src.stk_interface.stk_manager - INFO - âœ… å«æ˜Ÿåˆ›å»ºæˆåŠŸ: Satellite06
2025-08-06 19:37:29,566 - src.stk_interface.stk_manager - INFO - ğŸ”­ åˆ›å»ºä¼ æ„Ÿå™¨: Satellite06_Payload
2025-08-06 19:37:30,724 - src.stk_interface.stk_manager - INFO - âœ“ ä¼ æ„Ÿå™¨æ¨¡å¼è®¾ç½®ä¸ºåœ†é”¥
2025-08-06 19:37:30,971 - src.stk_interface.stk_manager - INFO - âœ“ è·å–Patternå¯¹è±¡æˆåŠŸï¼Œç±»å‹: <class 'win32com.client.CDispatch'>
2025-08-06 19:37:30,990 - src.stk_interface.stk_manager - INFO - âœ“ è®¾ç½®å¤–é”¥è§’æˆåŠŸ: 90.0Â°
2025-08-06 19:37:31,010 - src.stk_interface.stk_manager - INFO - âœ“ è®¾ç½®å†…é”¥è§’æˆåŠŸ: 66.0Â°
2025-08-06 19:37:31,065 - src.stk_interface.stk_manager - WARNING - âš ï¸ è®¾ç½®åœ†é”¥å‚æ•°å¤±è´¥: (-2147352567, 'å‘ç”Ÿæ„å¤–ã€‚', (0, None, 'Value 1.04719755 rad is invalid. Value range is 5.23598776 rad to 6.28318531 rad', None, 0, -2147220989), None)
2025-08-06 19:37:31,078 - src.stk_interface.stk_manager - INFO - âœ“ å•ç‹¬è®¾ç½®å¤–é”¥è§’æˆåŠŸ: 90.0Â°
2025-08-06 19:37:31,080 - src.stk_interface.stk_manager - INFO - âœ… åœ†é”¥è§†åœºé…ç½®æˆåŠŸ
2025-08-06 19:37:31,134 - src.stk_interface.stk_manager - INFO - âœ… æŒ‡å‘å‚æ•°é…ç½®æˆåŠŸ
2025-08-06 19:37:31,741 - src.stk_interface.stk_manager - INFO - âœ“ è·ç¦»çº¦æŸè®¾ç½®æˆåŠŸ: 0-5000km
2025-08-06 19:37:31,778 - src.stk_interface.stk_manager - INFO - âœ… çº¦æŸå‚æ•°é…ç½®æˆåŠŸ
2025-08-06 19:37:31,778 - src.stk_interface.stk_manager - INFO - âœ… ä¼ æ„Ÿå™¨åˆ›å»ºæˆåŠŸ: Satellite06_Payload
2025-08-06 19:37:31,780 - src.constellation.constellation_manager - INFO - âœ… å«æ˜Ÿåˆ›å»ºæˆåŠŸ: Satellite06 (è½¨é“é¢1, ä½ç½®6)
2025-08-06 19:37:32,098 - src.stk_interface.stk_manager - INFO - ğŸ›°ï¸ åˆ›å»ºå«æ˜Ÿå¯¹è±¡: Satellite07
2025-08-06 19:37:34,182 - src.stk_interface.stk_manager - INFO - âœ… ä¼ æ’­å™¨ç±»å‹è®¾ç½®æˆåŠŸ
2025-08-06 19:37:34,182 - src.stk_interface.stk_manager - INFO - âœ… å‚æ•° semi_axis = 8171.0 éªŒè¯é€šè¿‡
2025-08-06 19:37:34,182 - src.stk_interface.stk_manager - INFO - âœ… å‚æ•° eccentricity = 0.0 éªŒè¯é€šè¿‡
2025-08-06 19:37:34,183 - src.stk_interface.stk_manager - INFO - âœ… å‚æ•° inclination = 51.856 éªŒè¯é€šè¿‡
2025-08-06 19:37:34,183 - src.stk_interface.stk_manager - INFO - âœ… å‚æ•° raan = 0.0 éªŒè¯é€šè¿‡
2025-08-06 19:37:34,183 - src.stk_interface.stk_manager - INFO - âœ… å‚æ•° arg_of_perigee = 0.0 éªŒè¯é€šè¿‡
2025-08-06 19:37:34,183 - src.stk_interface.stk_manager - INFO - âœ… å‚æ•° mean_anomaly = 270.0 éªŒè¯é€šè¿‡
2025-08-06 19:37:34,183 - src.stk_interface.stk_manager - INFO - ğŸ”„ ä½¿ç”¨Kepleriané«˜åº¦æ–¹æ³•...
2025-08-06 19:37:34,508 - src.stk_interface.stk_manager - INFO - âœ… Kepleriané«˜åº¦æ–¹æ³•æˆåŠŸ
2025-08-06 19:37:34,644 - src.stk_interface.stk_manager - INFO - âœ… åœ°é¢è½¨è¿¹é…ç½®æˆåŠŸ
2025-08-06 19:37:34,651 - src.stk_interface.stk_manager - INFO - âœ… å«æ˜Ÿåˆ›å»ºæˆåŠŸ: Satellite07
2025-08-06 19:37:34,795 - src.stk_interface.stk_manager - INFO - ğŸ”­ åˆ›å»ºä¼ æ„Ÿå™¨: Satellite07_Payload
2025-08-06 19:37:35,823 - src.stk_interface.stk_manager - INFO - âœ“ ä¼ æ„Ÿå™¨æ¨¡å¼è®¾ç½®ä¸ºåœ†é”¥
2025-08-06 19:37:36,033 - src.stk_interface.stk_manager - INFO - âœ“ è·å–Patternå¯¹è±¡æˆåŠŸï¼Œç±»å‹: <class 'win32com.client.CDispatch'>
2025-08-06 19:37:36,054 - src.stk_interface.stk_manager - INFO - âœ“ è®¾ç½®å¤–é”¥è§’æˆåŠŸ: 90.0Â°
2025-08-06 19:37:36,074 - src.stk_interface.stk_manager - INFO - âœ“ è®¾ç½®å†…é”¥è§’æˆåŠŸ: 66.0Â°
2025-08-06 19:37:36,102 - src.stk_interface.stk_manager - WARNING - âš ï¸ è®¾ç½®åœ†é”¥å‚æ•°å¤±è´¥: (-2147352567, 'å‘ç”Ÿæ„å¤–ã€‚', (0, None, 'Value 1.04719755 rad is invalid. Value range is 5.23598776 rad to 6.28318531 rad', None, 0, -2147220989), None)
2025-08-06 19:37:36,117 - src.stk_interface.stk_manager - INFO - âœ“ å•ç‹¬è®¾ç½®å¤–é”¥è§’æˆåŠŸ: 90.0Â°
2025-08-06 19:37:36,120 - src.stk_interface.stk_manager - INFO - âœ… åœ†é”¥è§†åœºé…ç½®æˆåŠŸ
2025-08-06 19:37:36,186 - src.stk_interface.stk_manager - INFO - âœ… æŒ‡å‘å‚æ•°é…ç½®æˆåŠŸ
2025-08-06 19:37:36,825 - src.stk_interface.stk_manager - INFO - âœ“ è·ç¦»çº¦æŸè®¾ç½®æˆåŠŸ: 0-5000km
2025-08-06 19:37:36,831 - src.stk_interface.stk_manager - INFO - âœ… çº¦æŸå‚æ•°é…ç½®æˆåŠŸ
2025-08-06 19:37:36,832 - src.stk_interface.stk_manager - INFO - âœ… ä¼ æ„Ÿå™¨åˆ›å»ºæˆåŠŸ: Satellite07_Payload
2025-08-06 19:37:36,837 - src.constellation.constellation_manager - INFO - âœ… å«æ˜Ÿåˆ›å»ºæˆåŠŸ: Satellite07 (è½¨é“é¢1, ä½ç½®7)
2025-08-06 19:37:36,903 - src.stk_interface.stk_manager - INFO - ğŸ›°ï¸ åˆ›å»ºå«æ˜Ÿå¯¹è±¡: Satellite08
2025-08-06 19:37:38,942 - src.stk_interface.stk_manager - INFO - âœ… ä¼ æ’­å™¨ç±»å‹è®¾ç½®æˆåŠŸ
2025-08-06 19:37:38,943 - src.stk_interface.stk_manager - INFO - âœ… å‚æ•° semi_axis = 8171.0 éªŒè¯é€šè¿‡
2025-08-06 19:37:38,943 - src.stk_interface.stk_manager - INFO - âœ… å‚æ•° eccentricity = 0.0 éªŒè¯é€šè¿‡
2025-08-06 19:37:38,944 - src.stk_interface.stk_manager - INFO - âœ… å‚æ•° inclination = 51.856 éªŒè¯é€šè¿‡
2025-08-06 19:37:38,953 - src.stk_interface.stk_manager - INFO - âœ… å‚æ•° raan = 0.0 éªŒè¯é€šè¿‡
2025-08-06 19:37:38,954 - src.stk_interface.stk_manager - INFO - âœ… å‚æ•° arg_of_perigee = 0.0 éªŒè¯é€šè¿‡
2025-08-06 19:37:38,954 - src.stk_interface.stk_manager - INFO - âœ… å‚æ•° mean_anomaly = 315.0 éªŒè¯é€šè¿‡
2025-08-06 19:37:38,955 - src.stk_interface.stk_manager - INFO - ğŸ”„ ä½¿ç”¨Kepleriané«˜åº¦æ–¹æ³•...
2025-08-06 19:37:39,372 - src.stk_interface.stk_manager - INFO - âœ… Kepleriané«˜åº¦æ–¹æ³•æˆåŠŸ
2025-08-06 19:37:39,487 - src.stk_interface.stk_manager - INFO - âœ… åœ°é¢è½¨è¿¹é…ç½®æˆåŠŸ
2025-08-06 19:37:39,495 - src.stk_interface.stk_manager - INFO - âœ… å«æ˜Ÿåˆ›å»ºæˆåŠŸ: Satellite08
2025-08-06 19:37:39,621 - src.stk_interface.stk_manager - INFO - ğŸ”­ åˆ›å»ºä¼ æ„Ÿå™¨: Satellite08_Payload
2025-08-06 19:37:39,745 - __main__ - INFO - âš ï¸ ç”¨æˆ·ä¸­æ–­ç¨‹åº
